0 FENGYUN 1C DEB
1 37437U 99025EHF 13287.35411672  .00000510  00000-0  28055-3 0  1237
2 37437 098.9539 324.5826 0121494 135.6285 225.4643 14.12278434253934
0 FENGYUN 1C DEB
1 37437U 99025EHF 13290.32971112  .00000521  00000-0  28656-3 0  1248
2 37437 098.9534 327.5539 0120960 127.1561 234.0772 14.12282098254350
0 FENGYUN 1C DEB
1 37437U 99025EHF 13294.93477091  .00000524  00000-0  28756-3 0  1251
2 37437 098.9531 332.1544 0121510 114.2478 247.1470 14.12287385255008
0 FENGYUN 1C DEB
1 37437U 99025EHF 13295.35985143  .00000568  00000-0  30975-3 0  1265
2 37437 098.9527 332.5786 0121937 112.9791 248.4696 14.12289441255066
